{
  "type": "FeatureCollection",
  "features": [
    {
      "type": "Feature",
      "properties": {
        "norad_id": 43706,
        "name": "BEIDOU-3 M17 (C36)",
        "group": "beidou",
        "lat": 15.837446547490298,
        "lon": -159.48113967856503,
        "alt_km": 21521.1973408798,
        "timestamp": "2025-12-10T20:49:52.818967+00:00",
        "meta_object_name": "BEIDOU-3 M17 (C36)",
        "meta_object_id": "2018-093A",
        "meta_epoch": "2025-12-10T13:45:05.408064",
        "meta_mean_motion": 1.86228361,
        "meta_eccentricity": 0.00062551,
        "meta_inclination": 54.1726,
        "meta_ra_of_asc_node": 188.6952,
        "meta_arg_of_pericenter": 307.2652,
        "meta_mean_anomaly": 234.6216,
        "meta_ephemeris_type": 0,
        "meta_classification_type": "U",
        "meta_norad_cat_id": 43706,
        "meta_element_set_no": 999,
        "meta_rev_at_epoch": 4802,
        "meta_bstar": 0,
        "meta_mean_motion_dot": 5.7e-07,
        "meta_mean_motion_ddot": 0,
        "tle_line1": "1 43706U 18093A   25344.57297926  .00000057  00000+0  00000+0 0  9996",
        "tle_line2": "2 43706  54.1726 188.6952 0006255 307.2652 234.6216  1.86228361 48024"
      },
      "geometry": {
        "type": "Point",
        "coordinates": [
          -159.48113967856503,
          15.837446547490298
        ]
      }
    },
    {
      "type": "Feature",
      "properties": {
        "norad_id": 43707,
        "name": "BEIDOU-3 M18 (C37)",
        "group": "beidou",
        "lat": 48.44276954344919,
        "lon": -45.90661451979953,
        "alt_km": 21531.681056007437,
        "timestamp": "2025-12-10T20:49:52.818978+00:00",
        "meta_object_name": "BEIDOU-3 M18 (C37)",
        "meta_object_id": "2018-093B",
        "meta_epoch": "2025-12-09T02:08:32.306784",
        "meta_mean_motion": 1.86226655,
        "meta_eccentricity": 0.00062934,
        "meta_inclination": 54.1729,
        "meta_ra_of_asc_node": 188.7377,
        "meta_arg_of_pericenter": 351.6926,
        "meta_mean_anomaly": 8.358,
        "meta_ephemeris_type": 0,
        "meta_classification_type": "U",
        "meta_norad_cat_id": 43707,
        "meta_element_set_no": 999,
        "meta_rev_at_epoch": 4799,
        "meta_bstar": 0,
        "meta_mean_motion_dot": 4.9e-07,
        "meta_mean_motion_ddot": 0,
        "tle_line1": "1 43707U 18093B   25343.08926281  .00000049  00000+0  00000+0 0  9996",
        "tle_line2": "2 43707  54.1729 188.7377 0006293 351.6926   8.3580  1.86226655 47998"
      },
      "geometry": {
        "type": "Point",
        "coordinates": [
          -45.90661451979953,
          48.44276954344919
        ]
      }
    },
    {
      "type": "Feature",
      "properties": {
        "norad_id": 44204,
        "name": "BEIDOU-3 IGSO-1 (C38)",
        "group": "beidou",
        "lat": 55.12467025453734,
        "lon": 157.84188698074067,
        "alt_km": 35837.122879832306,
        "timestamp": "2025-12-10T20:49:52.818990+00:00",
        "meta_object_name": "BEIDOU-3 IGSO-1 (C38)",
        "meta_object_id": "2019-023A",
        "meta_epoch": "2025-11-19T14:15:02.708640",
        "meta_mean_motion": 1.00252177,
        "meta_eccentricity": 0.0026966,
        "meta_inclination": 58.4003,
        "meta_ra_of_asc_node": 39.8168,
        "meta_arg_of_pericenter": 221.2202,
        "meta_mean_anomaly": 126.9723,
        "meta_ephemeris_type": 0,
        "meta_classification_type": "U",
        "meta_norad_cat_id": 44204,
        "meta_element_set_no": 999,
        "meta_rev_at_epoch": 510,
        "meta_bstar": 0,
        "meta_mean_motion_dot": -2.26e-06,
        "meta_mean_motion_ddot": 0,
        "tle_line1": "1 44204U 19023A   25323.59378135 -.00000226  00000+0  00000+0 0  9994",
        "tle_line2": "2 44204  58.4003  39.8168 0026966 221.2202 126.9723  1.00252177  5102"
      },
      "geometry": {
        "type": "Point",
        "coordinates": [
          157.84188698074067,
          55.12467025453734
        ]
      }
    },
    {
      "type": "Feature",
      "properties": {
        "norad_id": 44231,
        "name": "BEIDOU-2 G8 (C01)",
        "group": "beidou",
        "lat": 1.6162669805882146,
        "lon": 176.78290129697373,
        "alt_km": 35819.101951032746,
        "timestamp": "2025-12-10T20:49:52.819004+00:00",
        "meta_object_name": "BEIDOU-2 G8 (C01)",
        "meta_object_id": "2019-027A",
        "meta_epoch": "2025-12-10T13:34:00.693120",
        "meta_mean_motion": 1.00268228,
        "meta_eccentricity": 0.00086103,
        "meta_inclination": 1.6567,
        "meta_ra_of_asc_node": 74.6882,
        "meta_arg_of_pericenter": 255.1063,
        "meta_mean_anomaly": 97.7679,
        "meta_ephemeris_type": 0,
        "meta_classification_type": "U",
        "meta_norad_cat_id": 44231,
        "meta_element_set_no": 999,
        "meta_rev_at_epoch": 2418,
        "meta_bstar": 0,
        "meta_mean_motion_dot": -2.44e-06,
        "meta_mean_motion_ddot": 0,
        "tle_line1": "1 44231U 19027A   25344.56528580 -.00000244  00000+0  00000+0 0  9999",
        "tle_line2": "2 44231   1.6567  74.6882 0008610 255.1063  97.7679  1.00268228 24182"
      },
      "geometry": {
        "type": "Point",
        "coordinates": [
          176.78290129697373,
          1.6162669805882146
        ]
      }
    },
    {
      "type": "Feature",
      "properties": {
        "norad_id": 44337,
        "name": "BEIDOU-3 IGSO-2 (C39)",
        "group": "beidou",
        "lat": -6.937320995557616,
        "lon": 155.6513479235216,
        "alt_km": 35922.58981885848,
        "timestamp": "2025-12-10T20:49:52.819016+00:00",
        "meta_object_name": "BEIDOU-3 IGSO-2 (C39)",
        "meta_object_id": "2019-035A",
        "meta_epoch": "2025-12-08T21:18:38.600064",
        "meta_mean_motion": 1.00272014,
        "meta_eccentricity": 0.0037301,
        "meta_inclination": 55.2241,
        "meta_ra_of_asc_node": 160.5341,
        "meta_arg_of_pericenter": 202.3504,
        "meta_mean_anomaly": 154.1975,
        "meta_ephemeris_type": 0,
        "meta_classification_type": "U",
        "meta_norad_cat_id": 44337,
        "meta_element_set_no": 999,
        "meta_rev_at_epoch": 2375,
        "meta_bstar": 0,
        "meta_mean_motion_dot": -7.9e-07,
        "meta_mean_motion_ddot": 0,
        "tle_line1": "1 44337U 19035A   25342.88794676 -.00000079  00000+0  00000+0 0  9995",
        "tle_line2": "2 44337  55.2241 160.5341 0037301 202.3504 154.1975  1.00272014 23758"
      },
      "geometry": {
        "type": "Point",
        "coordinates": [
          155.6513479235216,
          -6.937320995557616
        ]
      }
    },
    {
      "type": "Feature",
      "properties": {
        "norad_id": 44542,
        "name": "BEIDOU-3 M24 (C46)",
        "group": "beidou",
        "lat": 47.45032964676713,
        "lon": -119.60268186867316,
        "alt_km": 21502.05799551869,
        "timestamp": "2025-12-10T20:49:52.819027+00:00",
        "meta_object_name": "BEIDOU-3 M24 (C46)",
        "meta_object_id": "2019-061A",
        "meta_epoch": "2025-12-10T05:37:21.080064",
        "meta_mean_motion": 1.86229306,
        "meta_eccentricity": 0.0009591,
        "meta_inclination": 54.4003,
        "meta_ra_of_asc_node": 189.1006,
        "meta_arg_of_pericenter": 24.8037,
        "meta_mean_anomaly": 335.3012,
        "meta_ephemeris_type": 0,
        "meta_classification_type": "U",
        "meta_norad_cat_id": 44542,
        "meta_element_set_no": 999,
        "meta_rev_at_epoch": 4227,
        "meta_bstar": 0,
        "meta_mean_motion_dot": 5.4e-07,
        "meta_mean_motion_ddot": 0,
        "tle_line1": "1 44542U 19061A   25344.23427176  .00000054  00000+0  00000+0 0  9993",
        "tle_line2": "2 44542  54.4003 189.1006 0009591  24.8037 335.3012  1.86229306 42279"
      },
      "geometry": {
        "type": "Point",
        "coordinates": [
          -119.60268186867316,
          47.45032964676713
        ]
      }
    },
    {
      "type": "Feature",
      "properties": {
        "norad_id": 44543,
        "name": "BEIDOU-3 M23 (C45)",
        "group": "beidou",
        "lat": -18.016623568592106,
        "lon": 175.5771654869062,
        "alt_km": 21518.98532778871,
        "timestamp": "2025-12-10T20:49:52.819037+00:00",
        "meta_object_name": "BEIDOU-3 M23 (C45)",
        "meta_object_id": "2019-061B",
        "meta_epoch": "2025-12-08T18:00:07.463232",
        "meta_mean_motion": 1.8622754,
        "meta_eccentricity": 0.00060873,
        "meta_inclination": 54.3989,
        "meta_ra_of_asc_node": 189.119,
        "meta_arg_of_pericenter": 23.0878,
        "meta_mean_anomaly": 334.736,
        "meta_ephemeris_type": 0,
        "meta_classification_type": "U",
        "meta_norad_cat_id": 44543,
        "meta_element_set_no": 999,
        "meta_rev_at_epoch": 4224,
        "meta_bstar": 0,
        "meta_mean_motion_dot": 5e-07,
        "meta_mean_motion_ddot": 0,
        "tle_line1": "1 44543U 19061B   25342.75008638  .00000050  00000+0  00000+0 0  9993",
        "tle_line2": "2 44543  54.3989 189.1190 0006087  23.0878 334.7360  1.86227540 42241"
      },
      "geometry": {
        "type": "Point",
        "coordinates": [
          175.5771654869062,
          -18.016623568592106
        ]
      }
    }
  ]
}